GLOBALSTAR M084         
1 38040U 11080A   25184.96096898 -.00000093  00000+0  59458-4 0  9997
2 38040  52.0030 357.4091 0001141  86.7715  80.4321 12.62266912624789
GLOBALSTAR M080         
1 38041U 11080B   25184.93190102 -.00000085  00000+0  10371-3 0  9999
2 38041  52.0081 359.0956 0000795 125.1899  39.3059 12.62263800625043
GLOBALSTAR M082         
1 38042U 11080C   25184.78491964 -.00000096  00000+0  44030-4 0  9995
2 38042  52.0092 315.0056 0000698 144.4975   2.5539 12.62266967625592
GLOBALSTAR M092         
1 38043U 11080D   25185.07824770 -.00000102  00000+0  98874-5 0  9998
2 38043  52.0096  44.4897 0000837  77.1421  83.3161 12.62264456624291
GLOBALSTAR M090         
1 38044U 11080E   25184.73176288 -.00000100  00000+0  22238-4 0  9993
2 38044  52.0139 309.0081 0000592 124.0547  22.7338 12.62273742625702
GLOBALSTAR M086         
1 38045U 11080F   25184.76212544 -.00000088  00000+0  90302-4 0  9995
2 38045  51.9915 309.4116 0001021  38.0816 127.1384 12.62272178625654
GLOBALSTAR M097         
1 39072U 13005A   25184.35646388 -.00000096  00000+0  42837-4 0  9996
2 39072  52.0032 225.2102 0000086 169.1454 190.9414 12.62265508572855
GLOBALSTAR M093         
1 39073U 13005B   25184.48849836 -.00000102  00000+0  10896-4 0  9992
2 39073  51.9785 218.0855 0000107 221.4921 138.5937 12.62265828572829
